OBJECT_NAME,OBJECT_ID,EPOCH,MEAN_MOTION,ECCENTRICITY,INCLINATION,RA_OF_ASC_NODE,ARG_OF_PERICENTER,MEAN_ANOMALY,EPHEMERIS_TYPE,CLASSIFICATION_TYPE,NORAD_CAT_ID,ELEMENT_SET_NO,REV_AT_EPOCH,BSTAR,MEAN_MOTION_DOT,MEAN_MOTION_DDOT
STARLINK-34532,2025-137P,2026-06-07T20:00:04.000032,15.33498444,.0001476,53.1594,286.6613,71.5395,286.6577,0,U,64607,999,580,.26354E-2,.87172E-3,0
STARLINK-34519,2025-137Q,2026-06-07T16:20:43.804320,15.30159616,.0001475,53.1586,277.1897,79.4092,280.7075,0,U,64608,999,5451,.10315E-2,.30277E-3,0
STARLINK-34513,2025-137R,2026-06-07T14:42:05.627232,15.30216279,.00012,53.1600,277.4812,98.4323,261.6814,0,U,64609,999,5459,.8667E-3,.25411E-3,0
STARLINK-34569,2025-137S,2026-06-07T15:24:38.539008,15.30204161,.0001326,53.1594,277.6559,101.0285,259.0865,0,U,64610,999,5450,.11449E-2,.33707E-3,0
STARLINK-34494,2025-137T,2026-06-07T14:55:47.195328,15.30178991,.0001187,53.1586,277.5293,104.2438,255.8695,0,U,64611,999,5450,.89522E-3,.26231E-3,0
STARLINK-34521,2025-137U,2026-06-07T14:40:37.096608,15.30149876,.0000602,53.1599,277.4604,19.0267,341.0756,0,U,64612,999,5450,.67074E-3,.19528E-3,0
STARLINK-34500,2025-137V,2026-06-07T15:14:01.332096,15.30167311,.0001499,53.1584,277.6075,81.8958,278.2212,0,U,64613,999,5460,.10393E-2,.30518E-3,0
STARLINK-34440,2025-137W,2026-06-07T15:03:23.158368,15.30181822,.0001701,53.1596,277.5612,94.8098,265.3097,0,U,64614,999,5450,.98154E-3,.28808E-3,0
STARLINK-34469,2025-137X,2026-06-07T14:20:50.656992,15.30160926,.0001981,53.1608,277.3781,94.5183,265.6044,0,U,64615,999,5450,.66087E-3,.19241E-3,0
STARLINK-34413,2025-137Y,2026-06-07T20:00:04.000032,15.33510050,.0000661,53.1585,276.7370,64.2373,284.9810,0,U,64616,999,585,.18402E-2,.60563E-3,0
STARLINK-34417,2025-137Z,2026-06-07T18:43:11.434080,15.34372928,.0000774,53.1584,263.3805,93.1086,267.0005,0,U,64617,999,5481,.13038E-2,.43895E-3,0
STARLINK-34415,2025-137AA,2026-06-07T14:49:42.599424,15.30198455,.0001361,53.1587,277.5040,101.7971,258.3183,0,U,64618,999,5450,.61269E-3,.1783E-3,0
STARLINK-34416,2025-137AB,2026-06-07T17:53:15.831168,15.30157130,.0001572,53.1597,276.8780,91.3265,268.7915,0,U,64619,999,5452,.74232E-3,.21661E-3,0
STARLINK-34414,2025-137AC,2026-06-07T15:20:05.997120,15.30169967,.0001293,53.1583,277.6295,98.2659,261.8489,0,U,64620,999,5450,.10399E-2,.30537E-3,0
STARLINK-34464,2025-139A,2026-06-07T10:56:38.459616,15.34418658,.0001192,53.1581,68.9657,100.2228,259.8909,0,U,64664,999,5404,.6699E-3,.22338E-3,0
STARLINK-34555,2025-139B,2026-06-07T10:53:36.967776,15.34418516,.000113,53.1581,68.9571,121.3811,238.7302,0,U,64665,999,5394,.72254E-3,.24129E-3,0
STARLINK-34390,2025-139C,2026-06-07T11:38:56.599584,15.34400876,.000133,53.1596,68.4365,84.1397,275.9757,0,U,64666,999,5411,.11281E-2,.37931E-3,0
STARLINK-34382,2025-139D,2026-06-07T10:57:28.474848,15.30207501,.0000506,53.1579,70.3847,127.3826,232.7221,0,U,64667,999,5402,.75915E-3,.22197E-3,0
STARLINK-34395,2025-139E,2026-06-07T11:05:43.977984,15.34416374,.0001336,53.1598,69.0024,59.7695,300.3439,0,U,64668,999,5404,.10106E-2,.3394E-3,0
STARLINK-34394,2025-139F,2026-06-07T10:47:33.368064,15.34410396,.0000408,53.1571,68.9263,117.5387,242.5657,0,U,64669,999,5404,.77768E-3,.25999E-3,0
STARLINK-34287,2025-139G,2026-06-07T10:38:27.654432,15.34411167,.0000911,53.1583,68.8847,249.3314,110.7591,0,U,64670,999,5404,.85021E-3,.28469E-3,0
STARLINK-34365,2025-139H,2026-06-07T11:11:48.828768,15.34376053,.0001413,53.1603,69.0285,77.5464,282.5697,0,U,64671,999,5410,.6743E-3,.22457E-3,0
STARLINK-34442,2025-139J,2026-06-07T07:12:41.783040,15.34420221,.0001836,53.1584,69.4151,33.9008,326.2112,0,U,64672,999,5402,.95073E-3,.31904E-3,0
STARLINK-34288,2025-139K,2026-06-07T01:06:36.516672,15.34412701,.0001785,53.1581,70.6733,103.8592,256.2609,0,U,64673,999,5398,.10663E-2,.35839E-3,0
STARLINK-34539,2025-139L,2026-06-07T00:51:27.314784,15.34428635,.0003422,53.1590,70.6070,97.9111,262.2280,0,U,64674,999,5388,.10058E-2,.33794E-3,0
STARLINK-34590,2025-139M,2026-06-07T20:00:04.000032,15.33531636,.0000877,53.1587,68.6719,44.0091,210.2807,0,U,64675,999,589,.2489E-3,.7817E-4,0
STARLINK-34573,2025-139N,2026-06-07T11:35:54.627360,15.34398782,.0001377,53.1597,68.4187,80.5189,279.5969,0,U,64676,999,5405,.10793E-2,.36266E-3,0
STARLINK-34605,2025-139P,2026-06-07T10:39:12.636000,15.30245898,.0003209,53.1604,59.6557,91.3455,268.7913,0,U,64677,999,5417,.98442E-3,.28954E-3,0
STARLINK-34525,2025-139Q,2026-06-07T11:00:31.642848,15.30204541,.0001432,53.1587,70.3881,83.2855,276.8309,0,U,64678,999,5402,.73334E-3,.21426E-3,0
STARLINK-34489,2025-139R,2026-06-07T00:12:11.761344,15.34402440,.0001237,53.1607,71.1381,98.6842,261.4301,0,U,64679,999,5397,.88121E-3,.29516E-3,0
