[ {"name": "STARLINK-34532", "line1": "1 64607U 25137P   26158.83337963  .00087172  00000+0  26354-2 0  9991", "line2": "2 64607  53.1594 286.6613 0001476  71.5395 286.6577 15.33498444  5801"}, {"name": "STARLINK-34519", "line1": "1 64608U 25137Q   26158.68106255  .00030277  00000+0  10315-2 0  9997", "line2": "2 64608  53.1586 277.1897 0001475  79.4092 280.7075 15.30159616 54514"}, {"name": "STARLINK-34513", "line1": "1 64609U 25137R   26158.61256513  .00025411  00000+0  86670-3 0  9996", "line2": "2 64609  53.1600 277.4812 0001200  98.4323 261.6814 15.30216279 54592"}, {"name": "STARLINK-34569", "line1": "1 64610U 25137S   26158.64211272  .00033707  00000+0  11449-2 0  9992", "line2": "2 64610  53.1594 277.6559 0001326 101.0285 259.0865 15.30204161 54508"}, {"name": "STARLINK-34494", "line1": "1 64611U 25137T   26158.62207402  .00026231  00000+0  89522-3 0  9993", "line2": "2 64611  53.1586 277.5293 0001187 104.2438 255.8695 15.30178991 54500"}, {"name": "STARLINK-34521", "line1": "1 64612U 25137U   26158.61154047  .00019528  00000+0  67074-3 0  9998", "line2": "2 64612  53.1599 277.4604 0000602  19.0267 341.0756 15.30149876 54500"}, {"name": "STARLINK-34500", "line1": "1 64613U 25137V   26158.63473764  .00030518  00000+0  10393-2 0  9994", "line2": "2 64613  53.1584 277.6075 0001499  81.8958 278.2212 15.30167311 54601"}, {"name": "STARLINK-34440", "line1": "1 64614U 25137W   26158.62735137  .00028808  00000+0  98154-3 0  9990", "line2": "2 64614  53.1596 277.5612 0001701  94.8098 265.3097 15.30181822 54506"}, {"name": "STARLINK-34469", "line1": "1 64615U 25137X   26158.59780853  .00019241  00000+0  66087-3 0  9993", "line2": "2 64615  53.1608 277.3781 0001981  94.5183 265.6044 15.30160926 54505"}, {"name": "STARLINK-34413", "line1": "1 64616U 25137Y   26158.83337963  .00060563  00000+0  18402-2 0  9991", "line2": "2 64616  53.1585 276.7370 0000661  64.2373 284.9810 15.33510050  5855"}, {"name": "STARLINK-34417", "line1": "1 64617U 25137Z   26158.77999345  .00043895  00000+0  13038-2 0  9992", "line2": "2 64617  53.1584 263.3805 0000774  93.1086 267.0005 15.34372928 54816"}, {"name": "STARLINK-34415", "line1": "1 64618U 25137AA  26158.61785416  .00017830  00000+0  61269-3 0  9998", "line2": "2 64618  53.1587 277.5040 0001361 101.7971 258.3183 15.30198455 54503"}, {"name": "STARLINK-34416", "line1": "1 64619U 25137AB  26158.74532212  .00021661  00000+0  74232-3 0  9998", "line2": "2 64619  53.1597 276.8780 0001572  91.3265 268.7915 15.30157130 54527"}, {"name": "STARLINK-34414", "line1": "1 64620U 25137AC  26158.63895830  .00030537  00000+0  10399-2 0  9991", "line2": "2 64620  53.1583 277.6295 0001293  98.2659 261.8489 15.30169967 54506"}, {"name": "STARLINK-34464", "line1": "1 64664U 25139A   26158.45600069  .00022338  00000+0  66990-3 0  9998", "line2": "2 64664  53.1581  68.9657 0001192 100.2228 259.8909 15.34418658 54040"}, {"name": "STARLINK-34555", "line1": "1 64665U 25139B   26158.45390009  .00024129  00000+0  72254-3 0  9999", "line2": "2 64665  53.1581  68.9571 0001130 121.3811 238.7302 15.34418516 53944"}, {"name": "STARLINK-34390", "line1": "1 64666U 25139C   26158.48537731  .00037931  00000+0  11281-2 0  9995", "line2": "2 64666  53.1596  68.4365 0001330  84.1397 275.9757 15.34400876 54111"}, {"name": "STARLINK-34382", "line1": "1 64667U 25139D   26158.45657957  .00022197  00000+0  75915-3 0  9999", "line2": "2 64667  53.1579  70.3847 0000506 127.3826 232.7221 15.30207501 54024"}, {"name": "STARLINK-34395", "line1": "1 64668U 25139E   26158.46231456  .00033940  00000+0  10106-2 0  9991", "line2": "2 64668  53.1598  69.0024 0001336  59.7695 300.3439 15.34416374 54041"}, {"name": "STARLINK-34394", "line1": "1 64669U 25139F   26158.44969176  .00025999  00000+0  77768-3 0  9990", "line2": "2 64669  53.1571  68.9263 0000408 117.5387 242.5657 15.34410396 54043"}, {"name": "STARLINK-34287", "line1": "1 64670U 25139G   26158.44337563  .00028469  00000+0  85021-3 0  9997", "line2": "2 64670  53.1583  68.8847 0000911 249.3314 110.7591 15.34411167 54048"}, {"name": "STARLINK-34365", "line1": "1 64671U 25139H   26158.46653737  .00022457  00000+0  67430-3 0  9999", "line2": "2 64671  53.1603  69.0285 0001413  77.5464 282.5697 15.34376053 54102"}, {"name": "STARLINK-34442", "line1": "1 64672U 25139J   26158.30048360  .00031904  00000+0  95073-3 0  9994", "line2": "2 64672  53.1584  69.4151 0001836  33.9008 326.2112 15.34420221 54022"}, {"name": "STARLINK-34288", "line1": "1 64673U 25139K   26158.04625598  .00035839  00000+0  10663-2 0  9992", "line2": "2 64673  53.1581  70.6733 0001785 103.8592 256.2609 15.34412701 53989"}, {"name": "STARLINK-34539", "line1": "1 64674U 25139L   26158.03573281  .00033794  00000+0  10058-2 0  9999", "line2": "2 64674  53.1590  70.6070 0003422  97.9111 262.2280 15.34428635 53888"}, {"name": "STARLINK-34590", "line1": "1 64675U 25139M   26158.83337963  .00007817  00000+0  24890-3 0  9990", "line2": "2 64675  53.1587  68.6719 0000877  44.0091 210.2807 15.33531636  5894"}, {"name": "STARLINK-34573", "line1": "1 64676U 25139N   26158.48327115  .00036266  00000+0  10793-2 0  9996", "line2": "2 64676  53.1597  68.4187 0001377  80.5189 279.5969 15.34398782 54055"}, {"name": "STARLINK-34605", "line1": "1 64677U 25139P   26158.44389625  .00028954  00000+0  98442-3 0  9990", "line2": "2 64677  53.1604  59.6557 0003209  91.3455 268.7913 15.30245898 54177"}, {"name": "STARLINK-34525", "line1": "1 64678U 25139Q   26158.45869957  .00021426  00000+0  73334-3 0  9993", "line2": "2 64678  53.1587  70.3881 0001432  83.2855 276.8309 15.30204541 54021"}, {"name": "STARLINK-34489", "line1": "1 64679U 25139R   26158.00846946  .00029516  00000+0  88121-3 0  9996", "line2": "2 64679  53.1607  71.1381 0001237  98.6842 261.4301 15.34402440 53975"}]